C/2019 M4 (TESS),e,65.6993,52.6384,260.3291,83249,0.0000000,0.99988960,0.0000,09/08.9750/2019,2000,g  5.0,4.0
# From MPEC 2023-C45
C/2019 N1 (ATLAS),e,82.5627,13.4966,193.3398,946.7291,0.0000338,0.99820135,0.0000,11/30.4448/2020,2000,g  7.5,4.0
# From MPEC 2023-CD8
A/2019 N2,e,89.3186,276.2272,347.0389,1069,0.0000282,0.99818697,0.0000,08/22.3577/2019,2000,g 12.5,2.0
# From MPEC 2022-A21
C/2019 NJ3 (Lemmon),h,10/21.9705/2020,99.3212,142.4932,246.8637,1.001221,4.362951,2000,9.0,4.0
# From MPC185656
C/2019 O2 (PANSTARRS),e,93.2924,48.2647,129.5674,58.81555,0.0021851,0.83541063,2.0650,11/06.0/2025,2000,g  5.0,4.0
# From MPC182878
C/2019 O3 (Palomar),h,03/07.9213/2021,89.7923,300.4814,60.0873,1.002198,8.820414,2000,3.5,4.0
# From MPEC 2021-P47
A/2019 O4,e,114.9839,354.9240,61.8078,33.20210,0.0051518,0.89033093,10.7926,11/06.0/2025,2000,g 15.5,2.0
# From MPEC 2024-EF7
C/2019 Q1 (Lemmon),h,07/22.4086/2020,155.7158,42.4716,56.2483,1.002503,5.001071,2000,8.5,4.0
# From MPC117072
A/2019 Q2,e,158.9568,188.1510,176.5179,58.84508,0.0021834,0.97859988,0.0000,07/24.0300/2019,2000,g 18.0,2.0
# From MPC117072
P/2019 S2 (PANSTARRS),e,10.4636,93.1793,216.8843,4.747960,0.0952672,0.20467092,233.9684,11/06.0/2025,2000,g 13.5,4.0
# From MPEC 2022-CN4
P/2019 S3 (PANSTARRS),e,8.6944,150.1399,213.1017,3.413791,0.1562603,0.47065602,353.2525,11/06.0/2025,2000,g 18.3,4.0
# From MPEC 2021-S45
C/2019 S4 (Lemmon),e,92.0845,63.1531,71.3683,250.9233,0.0002480,0.98629776,0.0000,04/09.6747/2020,2000,g 11.0,4.0
# From MPEC 2023-N01
A/2019 T1,e,120.8068,6.9232,90.9613,38.70923,0.0040924,0.88959698,7.1870,11/06.0/2025,2000,g 13.0,2.0
# From MPEC 2023-R20
C/2019 T2 (Lemmon),e,111.3525,155.6526,239.3744,2975,0.0000061,0.99911168,0.0000,04/22.3768/2021,2000,g  9.0,4.0
# From MPEC 2023-UR6
C/2019 T3 (ATLAS),e,121.8831,139.5480,112.4930,5355,0.0000025,0.99888822,0.0000,03/04.9081/2021,2000,g  6.8,4.0
# From MPC188408
C/2019 T4 (ATLAS),e,53.6244,199.8879,351.1096,886.4367,0.0000373,0.99522038,0.0000,06/08.7059/2022,2000,g  5.0,4.0
# From MPEC 2021-P47
P/2019 T5 (ATLAS),e,33.4861,247.6142,189.6359,8.009379,0.0434816,0.80971514,99.4156,11/06.0/2025,2000,g 15.0,4.0
# From MPEC 2021-P47
P/2019 T6 (PANSTARRS),e,18.6968,71.2516,329.0635,5.443639,0.0776015,0.62224992,169.8933,11/06.0/2025,2000,g 15.5,4.0
# From MPC118096
P/2019 U4 (PANSTARRS),e,11.6955,199.9965,181.0943,3.518270,0.1493517,0.47566916,334.0802,11/06.0/2025,2000,g 19.0,4.0
# From MPEC 2025-V36
C/2019 U5 (PANSTARRS),h,03/29.3493/2023,113.5137,2.6030,181.4453,1.000015,3.624573,2000,4.5,4.0
# From MPEC 2022-H04
C/2019 U6 (Lemmon),e,61.0008,235.7239,329.4187,301.0604,0.0001887,0.99699350,0.0000,06/18.3828/2020,2000,g 10.0,4.0
# From MPEC 2022-N37
C/2019 V1 (Borisov),e,61.9452,83.1484,51.2028,3036,0.0000059,0.99898118,0.0000,07/17.8329/2020,2000,g 11.0,4.0
# From MPEC 2022-L66
P/2019 V2 (Groeller),e,11.8073,189.1245,335.6456,7.494910,0.0480346,0.33203954,88.6422,11/06.0/2025,2000,g 10.0,4.0
# From MPEC 2023-A50
P/2019 W1 (PANSTARRS),e,23.4645,35.3544,18.9145,4.548408,0.1016050,0.26712696,240.7590,11/06.0/2025,2000,g 12.9,4.0
# From MPEC 2021-P47
P/2019 X1 (Pruyne),e,10.2439,43.6741,37.0285,6.180506,0.0641458,0.30371447,147.2808,11/06.0/2025,2000,g 10.4,4.0
# From MPEC 2020-C98
P/2019 X2 (Pan-STARRS),e,15.8947,250.8262,213.5388,3.633488,0.1423045,0.50050895,306.7355,11/06.0/2025,2000,g 18.0,4.0
# From MPC119999
C/2019 Y1 (ATLAS),e,73.2401,31.4506,57.9234,88.37217,0.0011864,0.99065032,0.0000,03/17.3540/2020,2000,g 13.7,4.0
# From MPEC 2024-A43
C/2019 Y4 (ATLAS),e,44.9014,120.8054,177.3987,324.0142,0.0001690,0.99920581,0.0000,05/29.3382/2020,2000,g 11.8,6.0
# From MPEC 2020-L06
C/2019 Y4-A (ATLAS),h,05/29.3991/2020,45.3349,121.1741,177.2303,1.001349,0.255480,2000,11.9,6.0
# From MPEC 2025-CE3
C/2019 Y4-B (ATLAS),e,44.9825,120.8689,177.3576,1254,0.0000222,0.99979498,0.0000,05/29.3487/2020,2000,g 12.1,6.0
# From MPEC 2020-L06
C/2019 Y4-C (ATLAS),h,05/29.3546/2020,45.1190,120.9015,177.2629,1.002077,0.256548,2000,12.3,6.0
# From MPEC 2020-L06
C/2019 Y4-D (ATLAS),e,45.1730,121.2615,177.4073,67.03902,0.0017956,0.99618299,0.0000,05/29.4227/2020,2000,g 13.8,6.0
# From MPEC 2023-A50
C/2019 Y5 (PANSTARRS),e,82.7818,51.7775,303.6791,680.7264,0.0000555,0.99274868,0.0000,08/16.3017/2019,2000,g 11.0,4.0
# From MPEC 2023-A50
A/2020 A1,e,149.0315,119.0481,302.4068,25.45772,0.0076732,0.93425731,16.6371,11/06.0/2025,2000,g 18.0,2.0
# From MPEC 2022-YN2
C/2020 A2 (Iwamoto),e,120.4963,286.1802,68.0181,923.9618,0.0000351,0.99894349,0.0000,01/06.7159/2020,2000,g 13.5,4.0
# From MPEC 2023-A50
C/2020 A3 (ATLAS),e,146.6160,120.7965,268.2225,3857,0.0000041,0.99850849,0.0000,06/26.3268/2019,2000,g  8.0,4.0
# From MPEC 2022-P91
P/2020 A4 (PANSTARRS-Lemmon),e,25.0054,312.2679,144.9357,8.204859,0.0419370,0.65443728,91.1438,11/06.0/2025,2000,g 15.0,4.0
# From MPEC 2020-N08
A/2020 B1,e,18.5443,309.7818,154.9156,52.21304,0.0026124,0.96667407,5.5909,11/06.0/2025,2000,g 21.0,2.0
# From MPEC 2020-HN5
C/2020 B2 (Lemmon),e,55.7572,354.1495,143.6493,68.00543,0.0017575,0.95947195,3.7075,11/06.0/2025,2000,g 10.0,4.0
# From MPEC 2022-N37
C/2020 B3 (Rankin),e,20.7068,185.7197,324.9582,1097,0.0000271,0.99696635,0.0000,10/21.1008/2019,2000,g 13.0,4.0
# From MPEC 2023-KD6
P/2020 B4 (Sheppard),e,11.6021,185.9388,342.0950,7.975053,0.0437627,0.19307787,63.3227,11/06.0/2025,2000,g 10.5,4.0
# From MPC186629
C/2020 F2 (ATLAS),h,07/12.1718/2022,163.5898,250.2978,48.2266,1.002010,8.813580,2000,4.5,4.0
# From MPEC 2021-O56
C/2020 F3 (NEOWISE),e,129.0811,61.0595,37.3236,406.8911,0.0001201,0.99928018,0.0000,07/05.1711/2020,2000,g  7.5,5.2
# From MPEC 2024-UQ8
C/2020 F5 (MASTER),e,52.2391,350.5558,310.5913,162.9275,0.0004739,0.97345257,0.0000,03/15.9793/2021,2000,g  6.5,3.2
# From MPEC 2020-L06
C/2020 F6 (PANSTARRS),e,174.5847,207.8225,344.3024,334.1945,0.0001613,0.98953288,0.0000,04/09.9222/2020,2000,g 14.5,2.8
# From MPEC 2024-A43
C/2020 F7 (Lemmon),e,93.9900,321.8156,227.9974,582.3868,0.0000701,0.99083808,0.0000,11/14.0241/2021,2000,g  7.0,4.0
# From MPEC 2023-J29
C/2020 F8 (SWAN),h,05/25.5188/2020,110.5657,259.8143,68.1326,1.000051,0.433623,2000,10.0,4.0
# From MPEC 2020-L06
P/2020 G1 (Pimentel),e,18.5047,240.0902,207.6613,3.606054,0.1439314,0.86082036,296.0511,11/06.0/2025,2000,g 17.0,4.0
# From MPEC 2022-YB4
C/2020 H2 (Pruyne),e,124.7736,277.6714,26.5770,175.0974,0.0004254,0.99526874,0.0000,04/26.5573/2020,2000,g 14.0,3.2
# From MPEC 2020-HM1
C/2020 H3 (Wierzchos),p,06/05.7162/2020,62.5292,30.4456,2.300288,270.6227,2000,13.0,4.0
# From MPEC 2020-L06
C/2020 H4 (Leonard),e,84.4952,307.4271,117.5993,47.86766,0.0029761,0.98059754,0.0000,08/29.0693/2020,2000,g 15.0,3.2
# From MPC184409
C/2020 H5 (Robinson),e,70.2197,210.6085,326.2633,6548,0.0000019,0.99857440,0.0000,12/10.0075/2020,2000,g  5.0,4.0
# From MPEC 2024-JU4
C/2020 H6 (ATLAS),e,79.9951,213.6807,20.1799,1847,0.0000124,0.99745727,0.0000,09/29.4368/2021,2000,g  8.0,3.2
# From MPEC 2020-KB7
C/2020 H7 (Lemmon),e,135.9235,323.5194,82.6780,1405,0.0000187,0.99685380,0.0000,06/02.9510/2020,2000,g 11.0,4.0
# From MPEC 2021-N06
C/2020 H8 (PANSTARRS),e,99.6990,68.4322,128.7940,586.3116,0.0000694,0.99205053,0.0000,06/04.8697/2020,2000,g 10.5,4.0
# From MPEC 2022-ED3
A/2020 H9,e,137.8724,213.0949,312.5795,335.8778,0.0001601,0.99237642,0.0000,12/21.6434/2019,2000,g 18.0,2.0
# From MPEC 2023-HN7
C/2020 H11 (PANSTARRS-Lemmon),e,151.3702,303.0581,91.3539,10071,0.0000010,0.99924326,0.0000,09/12.0244/2020,2000,g  8.5,4.0
# From MPEC 2023-KD6
C/2020 J1 (SONEAR),e,142.3085,226.5735,341.5488,5930,0.0000022,0.99943603,0.0000,04/17.8183/2021,2000,g  8.5,3.2
# From MPC184409
C/2020 K1 (PANSTARRS),e,89.6703,94.3674,213.9640,1983,0.0000112,0.99844952,0.0000,05/08.5808/2023,2000,g  5.5,4.0
# From MPEC 2021-N06
C/2020 K2 (PANSTARRS),h,08/03.8706/2020,90.9857,288.4364,67.2984,1.000430,8.880232,2000,6.5,4.0
# From MPEC 2020-KF9
C/2020 K3 (Leonard),p,06/01.0032/2020,129.0152,64.4924,1.583069,28.3546,2000,14.5,4.0
# From MPEC 2020-L06
C/2020 K4 (PANSTARRS),e,125.5852,264.2708,308.7551,23.90739,0.0084315,0.92713846,17.4691,11/06.0/2025,2000,g 16.5,4.0
# From MPEC 2021-R75
C/2020 K5 (PANSTARRS),h,06/03.9332/2021,67.0699,86.1426,249.6446,1.000713,1.541495,2000,11.0,4.0
# From MPEC 2023-N01
C/2020 K6 (Rankin),h,09/14.3837/2021,103.6276,291.6028,44.2610,1.001724,5.865433,2000,8.0,4.0
# From MPEC 2023-A50
C/2020 K7 (PANSTARRS),e,32.0442,286.1355,358.0440,94.12974,0.0010792,0.93216001,2.3788,11/06.0/2025,2000,g  8.0,4.0
# From MPEC 2021-P47
C/2020 K8 (Catalina-ATLAS),h,09/15.8114/2020,31.3625,181.2381,260.2286,1.000338,0.472004,2000,15.0,3.2
# From MPEC 2021-BE3
P/2020 K9 (Lemmon-PANSTARRS),e,23.1872,166.3077,197.0823,4.207964,0.1141816,0.31994897,197.4598,11/06.0/2025,2000,g 12.5,4.0
# From MPEC 2023-C45
P/2020 M1 (PANSTARRS),e,8.5349,142.6213,72.4664,5.310757,0.0805322,0.47378841,172.7142,11/06.0/2025,2000,g 14.5,4.0
# From MPEC 2022-H30
C/2020 M3 (ATLAS),e,23.4679,71.1878,328.6825,27.31953,0.0069023,0.95326252,12.6825,11/06.0/2025,2000,g 14.5,4.0
# From MPEC 2023-N01
A/2020 M4,e,160.0979,348.6100,104.4522,9447,0.0000011,0.99937132,0.0000,11/22.3918/2020,2000,g 14.5,2.0
# From MPEC 2024-NE4
P/2020 MK4 (PANSTARRS),e,6.7809,0.6583,94.0955,6.225319,0.0634544,0.01543389,325.9608,11/06.0/2025,2000,g  8.0,4.0
# From MPEC 2023-FK0
C/2020 M5 (ATLAS),h,08/19.6775/2021,93.1655,352.0008,126.2456,1.000081,3.000183,2000,9.0,4.0
# From MPEC 2022-GA9
C/2020 N1 (PANSTARRS),h,03/13.2752/2021,29.7687,279.8537,186.8528,1.000934,1.318186,2000,12.5,4.0
# From MPEC 2021-P47
C/2020 N2 (ATLAS),e,161.0396,257.1726,331.1692,100.7923,0.0009740,0.98231722,0.0000,08/24.2544/2020,2000,g 16.0,3.2
# From MPEC 2024-JU4
C/2020 O2 (Amaral),e,71.7635,256.7875,10.1484,7096,0.0000016,0.99931583,0.0000,08/27.0520/2021,2000,g  8.0,3.2
# From MPEC 2023-C45
P/2020 O3 (PANSTARRS),e,8.4444,266.8163,81.1112,4.646089,0.0984176,0.10239249,171.9450,11/06.0/2025,2000,g 12.0,4.0
# From MPEC 2021-BE3
